ONEWEB-0570             
1 55149U 23004K   24086.56486778  .00000066  00000+0  13358-3 0  9998
2 55149  87.9175 137.2713 0002598 109.8307 250.3105 13.18685890 62596
ONEWEB-0571             
1 55150U 23004L   24086.55852710  .00000054  00000+0  10462-3 0  9992
2 55150  87.9176 137.2775 0002008 131.8684 228.2620 13.18688360 62609
ONEWEB-0572             
1 55151U 23004M   24086.47140596  .00000143  00000+0  33470-3 0  9999
2 55151  87.9249 167.5658 0002201 110.7529 249.3839 13.17649565 60456
ONEWEB-0573             
1 55152U 23004N   24086.55221408  .00000653  00000+0  16245-2 0  9997
2 55152  87.9170 137.3037 0002379 124.9918 235.1437 13.18690951 62591
ONEWEB-0588             
1 55153U 23004P   24086.16650555  .00000121  00000+0  27494-3 0  9993
2 55153  87.9176 137.3427 0002611 109.6219 250.5195 13.18684625 62542
ONEWEB-0598             
1 55154U 23004Q   24085.83571655 -.00000467  00000+0 -13532-2 0  9992
2 55154  87.9039 182.8298 0001751 131.9770 228.1508 13.11415822 59297
ONEWEB-0599             
1 55155U 23004R   24086.50777681  .00000026  00000+0  35030-4 0  9993
2 55155  87.9256 167.5374 0001827 106.6172 253.5161 13.17649858 60465
ONEWEB-0614             
1 55156U 23004S   24086.21233208 -.00000365  00000+0 -10653-2 0  9994
2 55156  87.9041 182.7582 0002341 103.1321 257.0068 13.11416867 59300
